IRIDIUM 119             
1 42959U 17061E   24022.48527154  .00000293  00000+0  97478-4 0  9992
2 42959  86.3954  31.6116 0002276  84.7249 275.4207 14.34218271329155
IRIDIUM 107             
1 42960U 17061F   24021.94612290  .00000237  00000+0  77500-4 0  9992
2 42960  86.3954  31.8530 0001971  84.7016 275.4404 14.34216477329089
IRIDIUM 132             
1 42961U 17061G   24021.95248561  .00000266  00000+0  88063-4 0  9998
2 42961  86.3955  31.8359 0001981  83.9794 276.1627 14.34218534329086
IRIDIUM 136             
1 42962U 17061H   24021.56559301  .00000280  00000+0  92762-4 0  9990
2 42962  86.3955  32.0004 0002410  86.7408 273.4063 14.34218153329045
IRIDIUM 139             
1 42963U 17061J   24022.47892418  .00000298  00000+0  99264-4 0  9994
2 42963  86.3956  31.6662 0002006  86.7766 273.3660 14.34218269329185
IRIDIUM 125             
1 42964U 17061K   24021.55922537  .00000235  00000+0  76715-4 0  9996
2 42964  86.3958  32.0958 0002261  81.3375 278.8077 14.34215805329063
IRIDIUM 135             
1 43070U 17083A   24021.95198014  .00000185  00000+0  58998-4 0  9995
2 43070  86.3995 328.6427 0002001  93.3200 266.8224 14.34217800318415
IRIDIUM 138             
1 43071U 17083B   24022.32619273  .00000187  00000+0  59867-4 0  9991
2 43071  86.3983 328.2221 0002220  76.2499 283.8943 14.34217483318452
